OBJECTID,StopAbbr,StopName,FacingDir,Lighting,ADA_ACCESS,BASE,Route_List,Municipality,County,Ons_Dec19,OFFs_Dec19,Position,LIFT,CURB,CURB_CUT,SIDEWALK,Stop_Type,Latitude,Longitude,Census_2010_Tracts_GA_GEOID10,Census_2010_Tracts_GA_NAMELSAD10,Census_2010_Tracts_GA_INTPTLAT10,Census_2010_Tracts_GA_INTPTLON10,NoCarPercentage19,MedHHI19,TotPop19,PerCapitaInc19,Missing Amenities,Shelter,PossibiltyOfAmentity,Notes,NSA,NSANoCar,NSAPop,NSAInc
4,212195,CONLEY RD SE @ 925,E,1,N,DIRT,55,Atlanta,Fulton,3.115637,1.140413,AT,Y,Y,N,N,Sign,33.650083,-84.359553,13121007200,Census Tract 72,33.6563757,-84.3609353,16.2,27083,2136,14787.7, ADA_Access Sidewalk,0,1,Space,T04,34.9,5026,34778
8,212196,FORREST PARK RD SE @ CONLEY RD SE,NE,1,N,DIRT,55,Atlanta,Fulton,16.880733,3.145009,FS,N,Y,N,N,Sign,33.65071,-84.357892,13121007200,Census Tract 72,33.6563757,-84.3609353,16.2,27083,2136,14787.7, ADA_Access Sidewalk,0,1,"Obstacles, Private Property",M01,22.6,16557,48855
42,212200,FORREST PARK RD SE @ PINE FOREST DR SE,N,1,Y,DIRT,55,Atlanta,Fulton,23.037409,4.418463,FS,Y,Y,Y,Y,Sign,33.659807,-84.355474,13121007200,Census Tract 72,33.6563757,-84.3609353,16.2,27083,2136,14787.7,  ,0,1,ROW,M01,22.6,16557,48855
76,212207,HUTCHENS RD SE @ KING SMITH RD SE,NW,1,N,DIRT,55,Atlanta,Fulton,16.233342,1.002156,NS,Y,Y,N,Y,Sign,33.669525,-84.367673,13121007300,Census Tract 73,33.6715465,-84.3791814,19.6,32044,6824,19671.5, ADA_Access ,0,1,ROW,M01,22.6,16557,48855
84,212209,HUTCHENS RD SE @ JONESBORO RD SE,NW,1,Y,DIRT,55,Atlanta,Fulton,27.535385,5.654315,NS,Y,Y,Y,Y,Sign,33.672021,-84.371878,13121007300,Census Tract 73,33.6715465,-84.3791814,19.6,32044,6824,19671.5,  ,0,1,Space,M01,22.6,16557,48855
86,212628,STONE RD SW @ N CAMP CREEK PKY SW,SE,1,N,DIRT,66,Atlanta,Fulton,10.531876,1.768674,NS,Y,Y,N,N,Sign,33.67255,-84.500602,13121007706,Census Tract 77.06,33.6739956,-84.522794,21.7,45101,9597,29083.5, ADA_Access Sidewalk,0,1,"Space, Improvements",M01,22.6,16557,48855
87,159014,EMPIRE BLVD SW @ MT ZION RD SW,N,1,Y,CONC,178,Atlanta,Fulton,152.651287,40.32083,NS,Y,Y,Y,Y,MARTA Shelter,33.672592,-84.393394,13121007300,Census Tract 73,33.6715465,-84.3791814,19.6,32044,6824,19671.5,  ,1,1,Few,M01,22.6,16557,48855
135,159123,CLEVELAND AVE SE @ 365,W,1,Y,CONC,78,Atlanta,Fulton,42.483435,30.389895,OP,Y,Y,N,Y,MARTA Shelter,33.680621,-84.378063,13121007300,Census Tract 73,33.6715465,-84.3791814,19.6,32044,6824,19671.5,  ,1,1,Few,M01,22.6,16557,48855
136,159392,CLEVELAND AVE SE @ 445,W,1,N,CONC,78,Atlanta,Fulton,132.48523,0.094987,OP,Y,Y,N,N,MARTA Shelter,33.680699,-84.375078,13121007300,Census Tract 73,33.6715465,-84.3791814,19.6,32044,6824,19671.5, ADA_Access Sidewalk,1,1,Few,M01,22.6,16557,48855
141,159296,CLEVELAND AVE @ JONESBORO RD,W,1,Y,CONC,78,Atlanta,Fulton,68.141944,24.800185,FS,Y,Y,Y,Y,Other Shelter,33.680822,-84.368114,13121007300,Census Tract 73,33.6715465,-84.3791814,19.6,32044,6824,19671.5,  ,0,1,ROW,M01,22.6,16557,48855
143,211328,OLD HAPEVILL RD @ CLEVELAND AVE,N,1,Y,CONC,178,Atlanta,Fulton,30.501861,49.939123,NS,Y,Y,Y,Y,MARTA Shelter,33.680983,-84.393609,13121007300,Census Tract 73,33.6715465,-84.3791814,19.6,32044,6824,19671.5,  ,1,1,Few,M01,22.6,16557,48855
149,137038,METROPOLITAN PKY SW@CLEVELAND AVE S,N,1,Y,DIRT,95,Atlanta,Fulton,96.255751,39.114686,NS,Y,Y,Y,Y,Sign,33.681059,-84.40758,13121007400,Census Tract 74,33.6789102,-84.4070935,40,19740,3412,12112.3,  ,0,1,Space,M01,22.6,16557,48855
150,159128,CLEVELAND AVE SE @ BROWNS MILL RD SE,W,1,Y,DIRT,78,Atlanta,Fulton,30.996615,14.394973,FS,Y,Y,Y,Y,Sign,33.681074,-84.384732,13121007001,Census Tract 70.01,33.6915165,-84.3868055,25,29528,4539,14048.4,  ,0,1,Few,M01,22.6,16557,48855
152,159302,CLEVELAND AVE SW @ MACON DR SW,W,0,Y,CONC,78,Atlanta,Fulton,47.749817,7.130489,NS,Y,Y,Y,Y,Sign,33.68116,-84.388657,13121007001,Census Tract 70.01,33.6915165,-84.3868055,25,29528,4539,14048.4,Lighting  ,0,1,ROW,M01,22.6,16557,48855
153,158310,CLEVELAND AVE SW @ METROPOLITAN PKWY,E,1,Y,CONC,78,Atlanta,Fulton,104.634969,242.841985,NS,Y,Y,Y,Y,MARTA Bench,33.68118,-84.40826,13121007400,Census Tract 74,33.6789102,-84.4070935,40,19740,3412,12112.3,  ,0,1,Few,M02,19.1,15395,61781
155,149030,CLEVELAND AVE SW @ OLD HAPEVILLE RD SW,W,1,Y,CONC,78,Atlanta,Fulton,153.156681,11.625427,NS,Y,Y,Y,Y,MARTA Shelter,33.681186,-84.393484,13121007001,Census Tract 70.01,33.6915165,-84.3868055,25,29528,4539,14048.4,  ,1,1,Few,W01,9.8,8065,88277
159,158316,CLEVELAND AVE SW @ BEELER DR SW,W,1,Y,CONC,78,Atlanta,Fulton,127.207402,17.641469,NS,Y,Y,Y,Y,MARTA Shelter,33.681263,-84.401062,13121007400,Census Tract 74,33.6789102,-84.4070935,40,19740,3412,12112.3,  ,1,1,Few,M01,22.6,16557,48855
164,158322,CLEVELAND AVE SW @ METROPOLITAN PKWY SW,W,1,Y,CONC,78,Atlanta,Fulton,232.153568,97.619474,NS,Y,Y,Y,Y,MARTA Bench,33.681346,-84.407551,13121007400,Census Tract 74,33.6789102,-84.4070935,40,19740,3412,12112.3,  ,0,1,Few,O03,15.3,4400,67889
167,158323,CLEVELAND AVE@650,W,1,Y,DIRT,78,Atlanta,Fulton,0,0,OP,Y,Y,Y,Y,Sign,33.68146,-84.41009,13121007400,Census Tract 74,33.6789102,-84.4070935,40,19740,3412,12112.3,  ,0,1,Improvements,O01,14.1,4845,70047
172,211203,OLD HAPEVILLE RD SW@2672,N,1,Y,DIRT,178,Atlanta,Fulton,16.260747,1.897302,AT,Y,Y,Y,Y,Sign,33.68208,-84.394062,13121007001,Census Tract 70.01,33.6915165,-84.3868055,25,29528,4539,14048.4,  ,0,1,"Space, Improvements",O02,9.2,6487,90488
188,210501,GREENBRIAR PKWY SW @ 3378,E,1,Y,CONC,83;183,Atlanta,Fulton,114.861403,10.161601,AT,Y,Y,Y,Y,MARTA Shelter,33.683991,-84.500573,13121007706,Census Tract 77.06,33.6739956,-84.522794,21.7,45101,9597,29083.5,  ,1,1,Few,O02,9.2,6487,90488
203,211650,JONESBORO RD SE @ 2491,S,1,Y,DIRT,55;78,Atlanta,Fulton,35.912852,34.086471,AT,Y,Y,Y,Y,Sign,33.685335,-84.364793,13121007002,Census Tract 70.02,33.6920888,-84.36821,5.5,45451,2651,20640.7,  ,0,1,Sign Missing,O02,9.2,6487,90488
216,145334,GREENBRIAR PKWY SW @ CONTINENTAL COLONY PKWY SW,E,1,Y,CONC,83;183,Atlanta,Fulton,102.264374,28.907295,NS,Y,Y,Y,Y,Other Bench,33.686314,-84.49153,13121007705,Census Tract 77.05,33.683153,-84.4909911,27.5,25906,4043,18419.6,  ,0,1,Few,O01,14.1,4845,70047
232,145114,GREENBRIAR PKWY @ THE FONTAINEBLEAU SW,NE,1,Y,CONC,66;83;93;183,Atlanta,Fulton,317.836632,158.57318,NS,Y,Y,Y,Y,MARTA Shelter,33.688008,-84.489785,13121007705,Census Tract 77.05,33.683153,-84.4909911,27.5,25906,4043,18419.6,  ,1,1,Few,O01,14.1,4845,70047
237,145026,GREENBRIAR PKWY @ THE FONTAINEBLEAU,SW,1,Y,CONC,66;83;93;183,Atlanta,Fulton,164.175341,319.468383,NS,Y,Y,Y,Y,MARTA Shelter,33.688256,-84.489702,13121007705,Census Tract 77.05,33.683153,-84.4909911,27.5,25906,4043,18419.6,  ,1,1,Few,T04,34.9,5026,34778
239,211408,JONESBORO RD SE@MCWILLIAMS RD SE,N,1,Y,DIRT,55,Atlanta,Fulton,30.475753,4.558319,NS,Y,Y,Y,N,Sign,33.688665,-84.363947,13121007002,Census Tract 70.02,33.6920888,-84.36821,5.5,45451,2651,20640.7,  Sidewalk,0,1,"Space, Improvements",T04,34.9,5026,34778
243,150050,MCWILLIAMS RD SE @ BROWNS MILL RD SE,E,1,N,CONC,78,Atlanta,Fulton,14.719968,18.272304,FS,Y,Y,Y,Y,Sign,33.688787,-84.373875,13121007002,Census Tract 70.02,33.6920888,-84.36821,5.5,45451,2651,20640.7, ADA_Access ,0,1,Sign Missing,T04,34.9,5026,34778
244,150022,MCWILLIAMS RD SE @ CAREY DR SE,E,1,Y,DIRT,78,Atlanta,Fulton,26.129355,40.638038,FS,Y,Y,Y,Y,Sign,33.688788,-84.36978,13121007002,Census Tract 70.02,33.6920888,-84.36821,5.5,45451,2651,20640.7,  ,0,1,Space,T04,34.9,5026,34778
273,145314,GREENBRIAR PKWY @ HEADLAND DR SW,N,1,Y,CONC,66;183,Atlanta,Fulton,162.115,30.332262,FS,Y,Y,Y,Y,MARTA Shelter,33.690417,-84.488986,13121007705,Census Tract 77.05,33.683153,-84.4909911,27.5,25906,4043,18419.6,  ,1,1,Few,T04,34.9,5026,34778
315,145011,CAMPBELLTON RD@GREENBRIAR PKY,E,0,N,CONC,83,Atlanta,Fulton,50.819673,6.532378,FS,Y,Y,N,Y,MARTA Shelter,33.692724,-84.49015,13121007704,Census Tract 77.04,33.7103251,-84.4851056,32.4,35814,5878,19400.8,Lighting ADA_Access ,1,1,Few,T04,34.9,5026,34778
380,151016,FORREST PARK RD SE @ NORWOOD RD SE,N,1,Y,CONC,4,Atlanta,Fulton,9.026945,0.654438,NS,Y,Y,Y,Y,MARTA Shelter,33.696848,-84.36004,13121007100,Census Tract 71,33.6963574,-84.3546555,21.8,25489,2751,15235.2,  ,1,1,Few,V02,31.9,4464,31738
390,211405,HARPER RD SE @ BROWNS MILL RD SE,W,1,N,DIRT,55,Atlanta,Fulton,20.643229,1.876067,NS,N,Y,N,N,Sign,33.69696,-84.373728,13121007002,Census Tract 70.02,33.6920888,-84.36821,5.5,45451,2651,20640.7, ADA_Access Sidewalk,0,1,Space,V03,28.5,2964,32674
391,211592,HARPER RD SE @ JERNIGAN DR SE,W,1,N,DIRT,55,Atlanta,Fulton,8.133279,0.31879,NS,N,N,N,N,Sign,33.69696,-84.372294,13121007002,Census Tract 70.02,33.6920888,-84.36821,5.5,45451,2651,20640.7, ADA_Access Sidewalk,0,1,Space,V03,28.5,2964,32674
409,121128,PANTHER TRL SW@CHILDRESS DR SW,E,0,N,DIRT,66,Atlanta,Fulton,15.055948,2.954357,NS,N,Y,N,N,Sign,33.698129,-84.486221,13121007704,Census Tract 77.04,33.7103251,-84.4851056,32.4,35814,5878,19400.8,Lighting ADA_Access Sidewalk,0,1,ROW,V01,24.5,3177,37960
411,121134,MT GILEAD RD SW @ CASCADE PARC BLVD,E,1,N,DIRT,66,Atlanta,Fulton,31.178343,12.815055,NS,N,Y,N,N,Sign,33.698248,-84.496488,13121007704,Census Tract 77.04,33.7103251,-84.4851056,32.4,35814,5878,19400.8, ADA_Access Sidewalk,0,1,Space,W04,7.8,5597,72443
422,149045,LAKEWOOD AVE @ LAKEWOOD WAY,S,1,N,DIRT,42;178,Atlanta,Fulton,19.175116,6.339181,FS,Y,Y,N,Y,Sign,33.698895,-84.392884,13121006700,Census Tract 67,33.7021727,-84.3954527,26.7,25651,3966,19372.1, ADA_Access ,0,0,Building,R02,27.4,7486,36037
431,136110,SYLVAN RD SW@ESTES DR,N,0,Y,CONC,42;79;172,Atlanta,Fulton,77.663449,40.202554,FS,Y,Y,Y,Y,MARTA Shelter,33.699314,-84.418098,13121007500,Census Tract 75,33.6934857,-84.4097937,34,26205,3348,22392,Lighting  ,1,1,Few,R02,27.4,7486,36037
500,210654,PRYOR RD@FAIR DR,S,1,N,DIRT,42,Atlanta,Fulton,1.605435,2.841637,NS,Y,Y,N,Y,Sign,33.702666,-84.39898,13121006700,Census Tract 67,33.7021727,-84.3954527,26.7,25651,3966,19372.1, ADA_Access ,0,1,Space,R02,27.4,7486,36037
502,139020,BROWNS MILL RD SE@JONESBORO RD SE,N,1,Y,DIRT,55;155,Atlanta,Fulton,44.283462,10.069484,NS,Y,Y,Y,Y,Sign,33.702709,-84.376502,13121007002,Census Tract 70.02,33.6920888,-84.36821,5.5,45451,2651,20640.7,  ,0,1,Sign Missing,I02,10.8,3110,58172
527,122384,CAMPBELLTON RD@BENT CREEK WAY,W,0,Y,DIRT,83,Atlanta,Fulton,14.987373,82.675079,NS,Y,Y,Y,Y,Sign,33.704007,-84.46656,13121007602,Census Tract 76.02,33.7109013,-84.4621548,18.3,32500,2570,21245.8,Lighting  ,0,1,Space,R01,49.5,6831,15247
530,122064,CAMPBELLTON RD SW @ WILLIS MILL RD SW,SW,1,Y,CONC,83,Atlanta,Fulton,13.656611,66.851751,FS,Y,Y,Y,Y,MARTA Shelter,33.704308,-84.46505,13121007602,Census Tract 76.02,33.7109013,-84.4621548,18.3,32500,2570,21245.8,  ,1,1,Few,R02,27.4,7486,36037
534,122014,CAMPBELLTON RD SW @ 2280,NE,0,Y,CONC,83,Atlanta,Fulton,134.07327,29.10789,AT,Y,Y,Y,Y,MARTA Shelter,33.70454,-84.462715,13121007604,Census Tract 76.04,33.7010616,-84.4654727,39,21863,2575,18962.7,Lighting  ,1,1,Few,R01,49.5,6831,15247
558,122003,CAMPBELLTON RD @ 2170,E,1,Y,CONC,83,Atlanta,Fulton,37.420287,24.61596,AT,Y,Y,Y,Y,Sign,33.705557,-84.459225,13121007604,Census Tract 76.04,33.7010616,-84.4654727,39,21863,2575,18962.7,  ,0,1,ROW,R01,49.5,6831,15247
563,122060,CAMPBELLTON RD SW@2191,SW,0,Y,DIRT,83,Atlanta,Fulton,23.881782,64.638436,AT,Y,Y,Y,Y,Sign,33.705915,-84.459409,13121007602,Census Tract 76.02,33.7109013,-84.4621548,18.3,32500,2570,21245.8,Lighting  ,0,1,"ROW, Sign Missing",R02,27.4,7486,36037
568,140076,MCDONOUGH BLVD SE @ HENRY THOMAS DR SE,NW,1,N,DIRT,49,Atlanta,Fulton,24.515729,0.696837,FS,Y,Y,N,Y,Sign,33.706132,-84.356275,13121007100,Census Tract 71,33.6963574,-84.3546555,21.8,25489,2751,15235.2, ADA_Access ,0,1,Improvements,R02,27.4,7486,36037
573,122380,CAMPBELLTON RD@DELOWE DR,E,1,Y,CONC,83,Atlanta,Fulton,60.797628,52.60083,NS,Y,Y,Y,Y,Sign,33.706301,-84.457545,13121007604,Census Tract 76.04,33.7010616,-84.4654727,39,21863,2575,18962.7,  ,0,1,ROW,R01,49.5,6831,15247
578,121120,LANDRUM DR SW @ CHILDRESS DR SW,E,1,Y,DIRT,66,Atlanta,Fulton,43.494363,13.729703,FS,Y,Y,Y,Y,Sign,33.706379,-84.487998,13121007704,Census Tract 77.04,33.7103251,-84.4851056,32.4,35814,5878,19400.8,  ,0,0,Private Property,S02,22.6,4532,36184
582,122005,CAMPBELLTON RD@DELOWE DR,W,1,Y,CONC,83,Atlanta,Fulton,49.800138,142.226322,NS,Y,Y,Y,Y,Sign,33.706608,-84.457223,13121007602,Census Tract 76.02,33.7109013,-84.4621548,18.3,32500,2570,21245.8,  ,0,1,Improvements,S02,22.6,4532,36184
590,122372,CAMPBELLTON RD SW @ MYRTLE DR SW,E,1,Y,CONC,83;162,Atlanta,Fulton,258.829052,84.159982,NS,Y,Y,Y,Y,MARTA Shelter,33.707124,-84.455263,13121007603,Census Tract 76.03,33.7065095,-84.440383,55.1,13456,4565,12942.3,  ,1,1,Few,R02,27.4,7486,36037
600,138106,JONESBORO RD@LAKEWOOD AVE,N,1,Y,CONC,55,Atlanta,Fulton,32.63684,6.29228,FS,Y,Y,Y,Y,Sign,33.707535,-84.38015,13121006700,Census Tract 67,33.7021727,-84.3954527,26.7,25651,3966,19372.1,  ,0,1,ROW,R01,49.5,6831,15247
611,122374,CAMPBELLTON RD @ HONEYSUCKLE LN,NE,1,Y,CONC,83,Atlanta,Fulton,120.131793,13.868782,NS,Y,Y,Y,Y,MARTA Shelter,33.707963,-84.453484,13121007603,Census Tract 76.03,33.7065095,-84.440383,55.1,13456,4565,12942.3,  ,1,1,Few,R01,49.5,6831,15247
643,122410,CAMPBELLTON RD SW @ 1870,NE,1,Y,CONC,83,Atlanta,Fulton,118.977327,43.930642,AT,Y,Y,Y,YS,MARTA Shelter,33.709861,-84.448274,13121007603,Census Tract 76.03,33.7065095,-84.440383,55.1,13456,4565,12942.3,  ,1,1,ROW,R01,49.5,6831,15247
649,137054,METROPOLITAN PKWY SW @ CLAIRE DR SW,N,1,N,CONC,95;295,Atlanta,Fulton,55.523765,14.09248,NS,Y,Y,N,Y,MARTA Shelter,33.710117,-84.407837,13121006500,Census Tract 65,33.7141012,-84.4101267,13,50163,3843,34823.9, ADA_Access ,1,1,Few,R02,27.4,7486,36037
662,122032,CAMPBELLTON RD SW @ WILLOWBROOK DR,NE,1,Y,CONC,83,Atlanta,Fulton,40.195156,11.975905,NS,Y,Y,Y,Y,Simme Seat,33.710807,-84.446926,13121007603,Census Tract 76.03,33.7065095,-84.440383,55.1,13456,4565,12942.3,  ,0,1,ROW,R01,49.5,6831,15247
674,122074,CAMPBELLTON RD SW @ RIDGEWOOD LN SW,NE,1,N,CONC,83;162,Atlanta,Fulton,73.531601,9.73186,FS,Y,Y,N,Y,MARTA Shelter,33.711455,-84.442171,13121007603,Census Tract 76.03,33.7065095,-84.440383,55.1,13456,4565,12942.3, ADA_Access ,1,1,ROW,S01,25.5,4307,30318
686,137056,METROPOLITAN PKWY SW @ 1577,N,1,Y,CONC,95;295,Atlanta,Fulton,156.228036,13.35581,OP,Y,Y,Y,Y,MARTA Shelter,33.712053,-84.407715,13121006500,Census Tract 65,33.7141012,-84.4101267,13,50163,3843,34823.9,  ,1,1,Few,V02,31.9,4464,31738
689,122076,CAMPBELLTON RD SW@ALMA ST SW,E,1,N,DIRT,83;162,Atlanta,Fulton,12.460048,6.85731,NS,N,N,N,N,Sign,33.712264,-84.439666,13121007603,Census Tract 76.03,33.7065095,-84.440383,55.1,13456,4565,12942.3, ADA_Access Sidewalk,0,0,Private Property,X04,25.4,4487,35163
727,124068,METROPOLITAN PKY SW@DECKNER AVE SW,N,1,Y,CONC,95,Atlanta,Fulton,7.066435,2.601775,NS,Y,Y,Y,Y,Sign,33.713963,-84.407806,13121006500,Census Tract 65,33.7141012,-84.4101267,13,50163,3843,34823.9,  ,0,1,ROW,X04,25.4,4487,35163
785,124070,METROPOLITAN PKY SW@LYNNHAVEN DR SW,N,0,Y,DIRT,95,Atlanta,Fulton,26.054576,6.627964,NS,Y,Y,Y,Y,Sign,33.715893,-84.407776,13121006500,Census Tract 65,33.7141012,-84.4101267,13,50163,3843,34823.9,Lighting  ,0,1,ROW,V02,31.9,4464,31738
822,123028,CAMPBELLTON RD SW@OAKLAND DR SW,SW,0,Y,DIRT,83;162,Atlanta,Fulton,36.019401,0.044444,NS,Y,Y,Y,Y,Sign,33.717639,-84.427377,13121006602,Census Tract 66.02,33.7186105,-84.4286624,37.4,25375,1248,15162.7,Lighting  ,0,1,ROW,Y03,21.3,3125,23318
843,125046,JONESBORO RD SE @ MCDONOUGH BLVD SE,NW,1,Y,DIRT,55,Atlanta,Fulton,28.3852,5.034627,NS,Y,Y,Y,Y,Sign,33.719056,-84.384956,13121005502,Census Tract 55.02,33.7162175,-84.3867651,20.2,21804,2846,16659.2,  ,0,1,Space,Y03,21.3,3125,23318
855,121162,CASCADE RD SW @ ADAMS DR SW,E,1,N,CONC,66;71,Atlanta,Fulton,29.59494,11.019285,NS,Y,Y,N,N,MARTA Shelter,33.719827,-84.486386,13121007704,Census Tract 77.04,33.7103251,-84.4851056,32.4,35814,5878,19400.8, ADA_Access Sidewalk,1,1,Few,W03,4.5,5118,116579
865,125048,MCDONOUGH BLVD SE@MARCY ST SE,NW,1,Y,DIRT,55,Atlanta,Fulton,3.927256,0.304116,FS,Y,Y,Y,Y,Sign,33.720228,-84.38625,13121005502,Census Tract 55.02,33.7162175,-84.3867651,20.2,21804,2846,16659.2,  ,0,1,Space,W04,7.8,5597,72443
884,122250,CASCADE RD SW @ POLLARD DR SW,E,1,Y,CONC,71,Atlanta,Fulton,15.496091,5.284289,NS,Y,Y,Y,Y,MARTA Shelter,33.721316,-84.455549,13121008000,Census Tract 80,33.7245322,-84.4555815,16.3,43854,5529,25607.8,  ,1,1,Few,X04,25.4,4487,35163
887,211309,UNIVERSITY AVE SW @ PRYOR RD SW,E,1,N,DIRT,55,Atlanta,Fulton,12.365854,24.997727,FS,Y,Y,N,N,Sign,33.721407,-84.392425,13121006300,Census Tract 63,33.7237613,-84.3997049,38.3,31483,1492,24729.6, ADA_Access Sidewalk,0,1,Space,X03,40,2772,19643
916,127052,MORELAND AVE SE @ VILLAGE CREEK LNDG,N,1,Y,CONC,4;832,Atlanta,Fulton,76.973355,18.792768,FS,Y,Y,Y,Y,MARTA Shelter,33.722184,-84.349424,13089020900,Census Tract 209,33.7363585,-84.3370089,7.8,71618,5927,47614,  ,1,1,Few,X04,25.4,4487,35163
922,124058,METROPOLITAN PKY SW @ UNIVERSITY AVE,S,1,Y,DIRT,95,Atlanta,Fulton,13.473699,67.716196,NS,Y,Y,Y,Y,Sign,33.722273,-84.40791,13121005800,Census Tract 58,33.731861,-84.4105985,23.4,42679,1479,25237.5,  ,0,1,ROW,X04,25.4,4487,35163
950,122240,CASCADE AVE SW @ AVON AVE SW,NE,1,Y,DIRT,71,Atlanta,Fulton,14.514014,2.815321,NS,Y,Y,Y,Y,Sign,33.723175,-84.45027,13121008000,Census Tract 80,33.7245322,-84.4555815,16.3,43854,5529,25607.8,  ,0,1,ROW,Y04,17.6,2162,34731
962,124077,METROPOLITAN PKY SW@MAYLAND AVE SW,N,1,Y,CONC,95,Atlanta,Fulton,12.95366,3.972062,NS,Y,Y,Y,Y,Sign,33.724471,-84.407749,13121006300,Census Tract 63,33.7237613,-84.3997049,38.3,31483,1492,24729.6,  ,0,1,ROW,Y04,17.6,2162,34731
1017,127040,UNITED AVE @ UNDERWOOD AVE,W,1,N,DIRT,832,Atlanta,Fulton,21.722655,5.52987,NS,Y,Y,N,Y,Sign,33.72664,-84.357185,13121005200,Census Tract 52,33.7355107,-84.3544773,4.5,111759,5170,59445.1, ADA_Access ,0,0,"Hill, Private Property",W02,16.7,3661,66873
1030,114088,METROPOLITAN PKWY SW @ BROOKLINE ST SW,N,1,Y,CONC,95,Atlanta,Fulton,10.883727,1.676851,FS,Y,Y,Y,Y,MARTA Shelter,33.727286,-84.407664,13121006300,Census Tract 63,33.7237613,-84.3997049,38.3,31483,1492,24729.6,  ,1,1,Few,R02,27.4,7486,36037
1033,211401,UNITED AVE @ CONFEDERATE CT,W,1,N,DIRT,832,Atlanta,Fulton,25.986615,2.927381,NS,Y,Y,N,Y,Sign,33.727363,-84.362304,13121005200,Census Tract 52,33.7355107,-84.3544773,4.5,111759,5170,59445.1, ADA_Access ,0,1,"ROW, Improvements",R03,27.5,4043,26298
1043,900142,CASCADE AVE SW @ ORLANDO ST SW,E,0,Y,DIRT,71,Atlanta,Fulton,26.103656,2.302042,NS,Y,Y,Y,Y,Sign,33.727827,-84.443085,13121006100,Census Tract 61,33.7277552,-84.4370324,20.4,29323,3908,15885.3,Lighting  ,0,0,Private Property,R03,27.5,4043,26298
1067,115174,HANK AARON DR@VANIRA AVE SE,N,1,Y,CONC,55,Atlanta,Fulton,11.247551,2.239115,NS,Y,Y,Y,Y,Sign,33.728989,-84.387825,13121005501,Census Tract 55.01,33.729867,-84.3837371,24.5,37647,2547,25104.4,  ,0,1,Sign Missing,R03,27.5,4043,26298
1081,900209,CASCADE AVE SW@PINEVIEW TER SW,NE,1,Y,DIRT,71,Atlanta,Fulton,23.245571,1.837692,NS,Y,Y,Y,Y,Sign,33.729683,-84.440666,13121006100,Census Tract 61,33.7277552,-84.4370324,20.4,29323,3908,15885.3,  ,0,1,ROW,R03,27.5,4043,26298
1106,212799,ATLANTA AVE SE @ MARION AVE SE,W,1,Y,DIRT,832,Atlanta,Fulton,8.133369,0.3,NS,Y,Y,Y,Y,Sign,33.730433,-84.365544,13121005300,Census Tract 53,33.7321402,-84.3708876,8.4,102303,3861,60699.7,  ,0,0,Private Property,Z04,23.5,4322,31018
1122,900211,CASCADE AVE SW@RICHLAND RD SW,NE,0,Y,CONC,71,Atlanta,Fulton,27.025504,3.662791,NS,Y,Y,Y,Y,Sign,33.731194,-84.439178,13121006100,Census Tract 61,33.7277552,-84.4370324,20.4,29323,3908,15885.3,Lighting  ,0,0,Private Property,Y04,17.6,2162,34731
1131,115166,HANK AARON DR@ORMOND ST SE,N,1,Y,CONC,55,Atlanta,Fulton,31.504791,5.383763,NS,Y,Y,Y,Y,MARTA Shelter,33.731518,-84.387779,13121005501,Census Tract 55.01,33.729867,-84.3837371,24.5,37647,2547,25104.4,  ,1,1,Few,Z04,23.5,4322,31018
1174,900247,CASCADE AVE SW @ BEECHER ST SW,NE,1,Y,CONC,71,Atlanta,Fulton,46.655305,6.250809,NS,Y,Y,Y,Y,Sign,33.733199,-84.437509,13121006100,Census Tract 61,33.7277552,-84.4370324,20.4,29323,3908,15885.3,  ,0,0,Building,Z04,23.5,4322,31018
1206,115188,HANK AARON DR @ BILL LUCAS DR SE,N,1,Y,DIRT,55,Atlanta,Fulton,2.62265,1.161762,NS,Y,Y,Y,Y,Sign,33.734406,-84.387848,13121005501,Census Tract 55.01,33.729867,-84.3837371,24.5,37647,2547,25104.4,  ,0,1,ROW,Z01,14.7,3338,34511
1220,900147,CASCADE AVE SW@ALLEGHENY ST SW,NE,1,Y,DIRT,71,Atlanta,Fulton,41.645458,4.804017,NS,Y,Y,Y,Y,Sign,33.734879,-84.436554,13121006000,Census Tract 60,33.7379611,-84.4390857,26.1,38708,3722,22271,  ,0,1,"ROW, Private Property",X03,40,2772,19643
1308,113120,RALPH DAVID ABERNATH BLVD SW@ASHBY,E,1,Y,CONC,71,Atlanta,Fulton,22.460916,64.162466,NS,Y,Y,Y,Y,Sign,33.737913,-84.418205,13121004200,Census Tract 42,33.7390424,-84.4181854,52.6,18913,2477,21927.6,  ,0,1,ROW,X02,35.4,2349,24630
1310,113116,RALPH DAVID ABERNATH BLVD@PEEPLES,E,1,Y,CONC,71,Atlanta,Fulton,22.667338,14.225973,NS,Y,Y,Y,Y,Sign,33.738,-84.420632,13121004200,Census Tract 42,33.7390424,-84.4181854,52.6,18913,2477,21927.6,  ,0,1,ROW,X02,35.4,2349,24630
1315,900149,CASCADE AVE SW @ WESTWOOD AVE SW,W,1,Y,DIRT,71,Atlanta,Fulton,35.272729,250.876941,NS,Y,Y,Y,Y,Sign,33.738094,-84.435317,13121006000,Census Tract 60,33.7379611,-84.4390857,26.1,38708,3722,22271,  ,0,1,ROW,X02,35.4,2349,24630
1316,113068,RALPH DAVID ABERNATH BLVD@PEEPLES S,W,1,Y,DIRT,71,Atlanta,Fulton,15.124884,33.42915,NS,Y,Y,Y,Y,Sign,33.73811,-84.420235,13121004200,Census Tract 42,33.7390424,-84.4181854,52.6,18913,2477,21927.6,  ,0,1,ROW,Z03,19.4,6186,33342
1321,114082,RALPH D ABERNATHY BLVD @ W WHITEHALL ST,E,1,Y,CONC,1;40;58;71;95;155;832,Atlanta,Fulton,146.086771,88.910522,NS,Y,Y,Y,Y,MARTA Shelter,33.738185,-84.413155,13121004200,Census Tract 42,33.7390424,-84.4181854,52.6,18913,2477,21927.6,  ,1,1,Few,Z04,23.5,4322,31018
1322,113122,RALPH DAVID ABERNATH BLVD SW@EVANS,E,1,Y,DIRT,1;58;71,Atlanta,Fulton,28.368096,94.840599,NS,Y,Y,Y,Y,Sign,33.738201,-84.415785,13121004200,Census Tract 42,33.7390424,-84.4181854,52.6,18913,2477,21927.6,  ,0,1,ROW,Z04,23.5,4322,31018
1330,113166,RALPH D ABERNATHY BLVD SW @ DUNN ST SW,W,1,Y,CONC,71,Atlanta,Fulton,101.153501,0.115627,NS,Y,Y,Y,Y,MARTA Shelter,33.738338,-84.416122,13121004200,Census Tract 42,33.7390424,-84.4181854,52.6,18913,2477,21927.6,  ,1,1,ROW,Z04,23.5,4322,31018
1346,903419,S GORDON ST SW @ WESTWOOD AVE SW,N,1,Y,CONC,68,Atlanta,Fulton,21.412741,1.253401,NS,Y,Y,Y,Y,Sign,33.73857,-84.446462,13121006000,Census Tract 60,33.7379611,-84.4390857,26.1,38708,3722,22271,  ,0,0,Private Property,Z04,23.5,4322,31018
1350,900175,CASCADE AVE @ RALPH D ABERNATHY BLVD,NE,1,Y,CONC,71,Atlanta,Fulton,185.484445,21.875528,NS,Y,Y,Y,Y,MARTA Shelter,33.73874,-84.4336,13121006000,Census Tract 60,33.7379611,-84.4390857,26.1,38708,3722,22271,  ,1,1,Few,Z04,23.5,4322,31018
1427,105264,GLENWOOD AVE SE @ EVA DAVIS WAY,W,1,Y,CONC,24;107,Atlanta,DeKalb,63.486517,24.724715,NS,Y,Y,Y,Y,MARTA Shelter,33.740196,-84.313865,13089020802,Census Tract 208.02,33.7468474,-84.3021431,15,73981,4411,41281.5,  ,1,1,Few,P06,21.7,2764,45173
1452,900134,EVA DAVIS WAY @ GREENHAVEN DR SE,NW,1,Y,CONC,24,Atlanta,DeKalb,13.430005,2.654658,FS,Y,Y,Y,Y,MARTA Bench,33.741208,-84.314484,13089020802,Census Tract 208.02,33.7468474,-84.3021431,15,73981,4411,41281.5,  ,0,1,Few,M01,22.6,16557,48855
1453,117118,MORELAND AVE SE @ METROPOLITAN AVE SE,N,1,Y,DIRT,4;32;74,Atlanta,Fulton,17.250741,11.416191,NS,Y,Y,Y,Y,Sign,33.74122,-84.34914,13089020900,Census Tract 209,33.7363585,-84.3370089,7.8,71618,5927,47614,  ,0,1,ROW,Y04,17.6,2162,34731
1477,100090,LUCILE AVE SW @ ATWOOD ST SW,E,1,N,CONC,58,Atlanta,Fulton,11.966402,3.21545,NS,Y,Y,N,Y,Sign,33.742262,-84.428855,13121004100,Census Tract 41,33.7408497,-84.428069,16.7,54208,2214,24891, ADA_Access ,0,0,Private Property,M01,22.6,16557,48855
1554,103083,HILL ST SE @ WOODWARD AVE SE,N,1,Y,DIRT,9;186,Atlanta,Fulton,10.473078,11.341748,NS,Y,Y,Y,Y,Sign,33.745528,-84.379248,13121004900,Census Tract 49,33.7409122,-84.3794479,12.4,84655,2835,46973.7,  ,0,1,Space,M01,22.6,16557,48855
1561,211457,MCDANIEL ST @ NORTHSIDE DR SW,SE,1,Y,DIRT,813,Atlanta,Fulton,38.953663,4.765185,FS,Y,Y,Y,Y,Sign,33.745825,-84.406087,13121004300,Census Tract 43,33.745362,-84.4091076,20.3,36750,2846,16606.3,  ,0,1,Space,M01,22.6,16557,48855
1623,106168,MEMORIAL DR SE @ CANDLER RD SE,E,1,Y,CONC,21;823,Atlanta,DeKalb,57.162332,21.99379,FS,Y,Y,Y,Y,MARTA Shelter,33.747039,-84.291395,13089020802,Census Tract 208.02,33.7468474,-84.3021431,15,73981,4411,41281.5,  ,1,0,Private Property,Z04,23.5,4322,31018
1646,106084,CANDLER RD @ MEMORIAL DR SE,S,1,Y,CONC,15,Atlanta,DeKalb,61.515363,24.060627,NS,Y,Y,Y,Y,MARTA Bench,33.747263,-84.292145,13089020802,Census Tract 208.02,33.7468474,-84.3021431,15,73981,4411,41281.5,  ,0,1,Space,V03,28.5,2964,32674
1654,105218,MEMORIAL DR SE@DOUGLAS ST SE,E,1,Y,DIRT,21,Atlanta,DeKalb,0.71505,6.851903,NS,Y,Y,Y,N,Sign,33.747313,-84.319886,13089023700,Census Tract 237,33.7313084,-84.3183573,11.2,47712,6054,26696.8,  Sidewalk,0,1,ROW,Z03,19.4,6186,33342
1662,105455,MEMORIAL DR SE @ DOUGLAS ST SE,W,1,Y,CONC,21,Atlanta,DeKalb,4.662723,1.431619,NS,Y,Y,Y,Y,Sign,33.747366,-84.319451,13089020801,Census Tract 208.01,33.7558505,-84.3162082,2.6,94662,2509,54075.3,  ,0,1,ROW,W03,4.5,5118,116579
1671,105448,MEMORIAL DR SE @ WARREN ST SE,W,1,N,CONC,21,Atlanta,DeKalb,14.719057,27.384796,NS,N,Y,Y,Y,Sign,33.747429,-84.326234,13089020700,Census Tract 207,33.7538959,-84.3249841,12.4,95417,2634,43834.6, ADA_Access ,0,0,Private Property,Z01,14.7,3338,34511
1677,105572,MEMORIAL DR @ E LAKE TER,W,1,Y,CONC,21,Atlanta,DeKalb,17.7492,10.810035,NS,Y,Y,Y,Y,MARTA Bench,33.74749,-84.313846,13089020802,Census Tract 208.02,33.7468474,-84.3021431,15,73981,4411,41281.5,  ,0,1,Space,Z01,14.7,3338,34511
1707,901047,MORELAND AVE SE @ MEMORIAL DR SE,SE,1,Y,DIRT,4;32;74,Atlanta,Fulton,25.50481,36.832092,NS,Y,Y,Y,Y,Sign,33.747774,-84.349311,13121003100,Census Tract 31,33.7520808,-84.3530446,18,62250,2051,45758.9,  ,0,1,Private Property,L02,30,2447,29463
1718,102150,CAPITOL SQ SW @ CAPITOL PL SW,SE,1,Y,CONC,21;55,Atlanta,Fulton,23.112678,6.70585,NS,Y,Y,Y,Y,Sign,33.748217,-84.38812,13121003500,Census Tract 35,33.7508367,-84.3916061,10.2,53889,2074,27707.6,  ,0,1,ROW,T02,26,7446,36868
1748,101126,PETERS ST SW @ HAYNES ST SW,N,1,Y,CONC,813,Atlanta,Fulton,5.393316,1.445991,NS,Y,Y,Y,Y,Sign,33.749075,-84.39975,13121003500,Census Tract 35,33.7508367,-84.3916061,10.2,53889,2074,27707.6,  ,0,1,ROW,J03,31.1,3256,26191
1828,102173,DECATUR ST SE @ JESSE HILL JR DR SE,SE,1,Y,CONC,186,Atlanta,Fulton,29.556047,8.142219,NS,Y,Y,Y,Y,MARTA Shelter,33.7506,-84.384285,13121011900,Census Tract 119,33.7539369,-84.382691,34,25699,3517,26807,  ,1,1,ROW,F03,6.9,9276,93094
1884,102170,DECATUR ST SE @ PIEDMONT AVE SE,SE,1,Y,CONC,186;813,Atlanta,Fulton,25.121167,6.546374,NS,Y,Y,Y,Y,Sign,33.75154,-84.385666,13121011900,Census Tract 119,33.7539369,-84.382691,34,25699,3517,26807,  ,0,1,ROW,Z01,14.7,3338,34511
1886,102032,PRYOR ST @ MARTIN L KING JR DR,SW,1,Y,CONC,186,Atlanta,Fulton,0.500472,21.127294,NS,Y,Y,Y,Y,Sign,33.751593,-84.391066,13121003500,Census Tract 35,33.7508367,-84.3916061,10.2,53889,2074,27707.6,  ,0,1,ROW,M01,22.6,16557,48855
1891,211101,FORSYTH ST SW @ MITCHELL ST SW,S,1,Y,CONC,3;49;813,Atlanta,Fulton,4.507107,2.038884,NS,Y,Y,Y,Y,Sign,33.751696,-84.394341,13121003500,Census Tract 35,33.7508367,-84.3916061,10.2,53889,2074,27707.6,  ,0,0,Building,M01,22.6,16557,48855
1893,900684,MARTIN L KING JR DR SW @ MIDDLETON RD NW,SE,1,Y,CONC,73;165,Atlanta,Fulton,179.536896,40.295502,NS,Y,Y,Y,Y,MARTA Shelter,33.751731,-84.491278,13121007808,Census Tract 78.08,33.751633,-84.4998632,50.5,12485,4580,8788.9,  ,1,1,Few,Z04,23.5,4322,31018
1914,901265,PEACHTREE ST @ MARTIN L KING JR DR,S,1,Y,CONC,26;40;42;49;813,Atlanta,Fulton,18.493242,5.769101,NS,Y,Y,Y,Y,Sign,33.752199,-84.39214,13121003500,Census Tract 35,33.7508367,-84.3916061,10.2,53889,2074,27707.6,  ,0,0,Building,H02,30.6,2520,22377
1929,210555,PIEDMONT AVE  SE @ GILMER ST SE,NE,1,Y,CONC,107;813;899,Atlanta,Fulton,8.553752,9.88607,NS,Y,Y,Y,Y,Sign,33.752543,-84.384156,13121011900,Census Tract 119,33.7539369,-84.382691,34,25699,3517,26807,  ,0,1,ROW,D03,4.9,4069,77988
1932,900880,MARTIN L KING JR DR SW @ 3050,NE,1,Y,CONC,66;68;73;165,Atlanta,Fulton,91.38518,48.149946,AT,Y,Y,Y,Y,MARTA Shelter,33.752562,-84.486377,13121008102,Census Tract 81.02,33.7418906,-84.4717028,26.4,27119,6647,22271.1,  ,1,1,Few,Z05,17.7,2609,30981
1941,901141,MARTIN L KING JR DR SW @ 2500,W,1,Y,CONC,66;68;73;165;867,Atlanta,Fulton,321.808709,19.748839,OP,Y,Y,Y,Y,MARTA Shelter,33.752718,-84.469668,13121008102,Census Tract 81.02,33.7418906,-84.4717028,26.4,27119,6647,22271.1,  ,1,1,Few,Z05,17.7,2609,30981
1951,103138,DECATUR ST SE @ CENTRAL AVE SW,SE,1,Y,CONC,186;813,Atlanta,Fulton,5.297686,1.816234,NS,Y,Y,Y,Y,Sign,33.75306,-84.3877,13121011900,Census Tract 119,33.7539369,-84.382691,34,25699,3517,26807,  ,0,1,ROW,Z05,17.7,2609,30981
1955,102248,ALABAMA ST @ PEACHTREE ST (FIVE POINTS STATION),E,1,Y,CONC,42;49,Atlanta,Fulton,1463.157597,1289.552229,NS,Y,Y,Y,Y,Sign,33.753183,-84.391353,13121003500,Census Tract 35,33.7508367,-84.3916061,10.2,53889,2074,27707.6,  ,0,0,Building,Z05,17.7,2609,30981
1967,211627,PRYOR ST SE @ WALL ST SE,SW,1,Y,CONC,186,Atlanta,Fulton,0.247855,1.840063,NS,Y,Y,Y,Y,Sign,33.753346,-84.389407,13121011900,Census Tract 119,33.7539369,-84.382691,34,25699,3517,26807,  ,0,0,Building,Z05,17.7,2609,30981
1969,901264,PEACHTREE ST @ ALABAMA ST (FIVE POINTS STATION),S,1,Y,CONC,40;813,Atlanta,Fulton,317.664438,134.422493,NS,Y,Y,Y,Y,MARTA Shelter,33.753362,-84.39113,13121003500,Census Tract 35,33.7508367,-84.3916061,10.2,53889,2074,27707.6,  ,1,1,Few,P02,21.7,4178,45173
1984,102258,ALABAMA ST @ BROAD ST (FIVE POINTS STATION),E,1,Y,CONC,26;816,Atlanta,Fulton,680.899259,593.83671,NS,Y,Y,Y,Y,Sign,33.753505,-84.391973,13121003500,Census Tract 35,33.7508367,-84.3916061,10.2,53889,2074,27707.6,  ,0,1,Space,W01,9.8,8065,88277
1989,211645,PEACHTREE ST @ WALL ST (FIVE POINTS STATION),NE,1,Y,CONC,3;40;816,Atlanta,Fulton,232.006667,227.926227,NS,Y,Y,Y,Y,Sign,33.75358,-84.390368,13121011900,Census Tract 119,33.7539369,-84.382691,34,25699,3517,26807,  ,0,1,Space,N03,3.8,5245,102410
1991,102228,DECATUR ST @ KIMBALL WAY,SE,1,N,CONC,186;813,Atlanta,Fulton,18.252174,4.20129,NS,Y,Y,N,Y,Sign,33.753597,-84.388581,13121011900,Census Tract 119,33.7539369,-84.382691,34,25699,3517,26807, ADA_Access ,0,0,Building,B11,10.7,6035,70279
2004,900916,MARTIN L KING JR DR SW @ 2950,NE,1,Y,CONC,66;68;73;165,Atlanta,Fulton,35.522545,20.817305,AT,Y,Y,Y,Y,MARTA Bench,33.753763,-84.484662,13121008102,Census Tract 81.02,33.7418906,-84.4717028,26.4,27119,6647,22271.1,  ,0,1,Few,O01,14.1,4845,70047
2014,102274,ALABAMA ST @ FORSYTH ST (FIVE POINTS STATION),NW,1,Y,CONC,21;55,Atlanta,Fulton,1543.394452,1229.68995,NS,Y,Y,Y,Y,Sign,33.753809,-84.392419,13121003500,Census Tract 35,33.7508367,-84.3916061,10.2,53889,2074,27707.6,  ,0,1,Space,S03,18.9,2704,34214
2022,102292,FORSYTH ST @ ALABAMA ST (FIVE POINTS STATION),SW,1,Y,CONC,3,Atlanta,Fulton,177.411632,79.00259,NS,Y,Y,Y,Y,MARTA Shelter,33.753944,-84.392626,13121003500,Census Tract 35,33.7508367,-84.3916061,10.2,53889,2074,27707.6,  ,1,1,Few,T04,34.9,5026,34778
2024,102289,FORSYTH ST @ ALABAMA ST (FIVE POINTS STATION),NE,1,Y,CONC,813,Atlanta,Fulton,41.039264,204.533951,FS,Y,Y,Y,Y,Sign,33.754015,-84.392419,13121003500,Census Tract 35,33.7508367,-84.3916061,10.2,53889,2074,27707.6,  ,0,1,Space,T03,25.7,3505,38534
2037,901193,MARTIN L KING JR DR SW @ PEYTON PL SW,W,1,N,DIRT,66;68;73;165;867,Atlanta,Fulton,45.206945,29.995653,NS,Y,Y,N,Y,Sign,33.754337,-84.476135,13121008102,Census Tract 81.02,33.7418906,-84.4717028,26.4,27119,6647,22271.1, ADA_Access ,0,1,Space,T04,34.9,5026,34778
2049,102180,EDGEWOOD AVE @ PEACHTREE CENTER AVE,W,1,Y,CONC,3;816,Atlanta,Fulton,9.971582,11.444441,NS,Y,Y,Y,Y,Sign,33.754513,-84.386169,13121011900,Census Tract 119,33.7539369,-84.382691,34,25699,3517,26807,  ,0,1,Space,S03,18.9,2704,34214
2074,102226,MARIETTA ST NW @ BROAD ST (FIVE POINTS STATION),SE,1,Y,CONC,186,Atlanta,Fulton,92.10633,0.315335,NS,Y,Y,Y,Y,Sign,33.754992,-84.390659,13121011900,Census Tract 119,33.7539369,-84.382691,34,25699,3517,26807,  ,0,1,Space,S03,18.9,2704,34214
2083,900726,PEACHTREE ST @ AUBURN AVE NE,N,0,Y,CONC,3;40;816,Atlanta,Fulton,37.019141,11.625403,NS,Y,Y,Y,Y,Sign,33.755414,-84.388952,13121011900,Census Tract 119,33.7539369,-84.382691,34,25699,3517,26807,Lighting  ,0,1,Space,S03,18.9,2704,34214
2113,103060,BOULEVARD NE @ OLD WHEAT ST NE,N,1,Y,CONC,809,Atlanta,Fulton,4.728015,12.112372,NS,Y,Y,Y,Y,Sign,33.755851,-84.37208,13121002900,Census Tract 29,33.7580053,-84.3693491,11.7,71210,2425,55438.1,  ,0,0,Building,B08,13.2,9252,69274
2153,901374,MARIETTA ST NW @ TED TURNER DR,NW,1,Y,CONC,26,Atlanta,Fulton,9.323778,1.241266,NS,Y,Y,Y,Y,Sign,33.756897,-84.392443,13121011900,Census Tract 119,33.7539369,-84.382691,34,25699,3517,26807,  ,0,0,Building,B11,10.7,6035,70279
2187,902913,CAROLINE ST @ 1245,E,1,Y,CONC,102,Atlanta,DeKalb,33.167317,49.178532,AT,Y,Y,Y,Y,Sign,33.758338,-84.347739,13089020500,Census Tract 205,33.7526586,-84.3416194,14.9,65694,3161,42099.4,  ,0,1,Space,B11,10.7,6035,70279
2193,902882,CAROLINE ST @ 1270,W,1,Y,DIRT,102,Atlanta,DeKalb,46.629405,28.282124,AT,Y,Y,Y,Y,Sign,33.758437,-84.347065,13089020500,Census Tract 205,33.7526586,-84.3416194,14.9,65694,3161,42099.4,  ,0,1,Sign Missing,B08,13.2,9252,69274
2222,903461,BOULEVARD NE @ CAIN ST NE,S,0,Y,CONC,809,Atlanta,Fulton,8.457167,6.897342,NS,Y,Y,Y,Y,Sign,33.759818,-84.372098,13121002900,Census Tract 29,33.7580053,-84.3693491,11.7,71210,2425,55438.1,Lighting  ,0,1,Space,B01,9.8,4723,95649
2227,905430,CARVER DR NW @ FAIRFIELD PL NW,E,1,Y,DIRT,867,Atlanta,Fulton,20.832946,4.870696,NS,Y,Y,Y,Y,Sign,33.759905,-84.463158,13121008301,Census Tract 83.01,33.7642262,-84.4588616,37.5,25060,2327,15765.7,  ,0,1,ROW,B01,9.8,4723,95649
2285,210759,PEACHTREE CENTER AVE @ BAKER ST,N,1,Y,CONC,816,Atlanta,Fulton,10.602996,3.797702,NS,Y,Y,Y,Y,Sign,33.762182,-84.385979,13121001900,Census Tract 19,33.7661963,-84.3872629,15.9,62656,5064,28127.2,  ,0,0,Building,B01,9.8,4723,95649
2299,901355,JOSEPH E BOONE BLVD @ GRIFFIN ST NW,E,0,Y,CONC,51,Atlanta,Fulton,22.967859,18.787281,NS,Y,Y,Y,Y,Sign,33.763241,-84.411346,13121002500,Census Tract 25,33.7590745,-84.4126613,39.3,30283,2814,16237.6,Lighting  ,0,1,Sign Missing,I05,31.7,5438,23484
2301,900710,JOSEPH E BOONE BLVD @ JAMES P BRAWLEY,E,1,Y,CONC,51,Atlanta,Fulton,25.105845,12.712185,NS,Y,Y,Y,Y,Sign,33.763285,-84.412774,13121002500,Census Tract 25,33.7590745,-84.4126613,39.3,30283,2814,16237.6,  ,0,0,Private Property,L01,35.1,4486,31103
2304,210837,MARIETTA ST @ SIMPSON ST,N,1,Y,CONC,26,Atlanta,Fulton,2.359417,16.952393,NS,Y,Y,Y,Y,Sign,33.76333,-84.397102,13121002100,Census Tract 21,33.7655324,-84.3947712,17.6,68618,2409,41520.4,  ,0,1,ROW,L01,35.1,4486,31103
2305,211909,MARTIN L KING JR DR SW @ ADAMSVILLE PLACE PKWY  SW,SE,0, ,DIRT,73;856,Atlanta,Fulton,8.339287,2.755298,FS, ,Y,Y,Y,Sign,33.763349,-84.509221,13121007805,Census Tract 78.05,33.7542322,-84.5385907,27.4,31174,3397,20944.7,Lighting  ,0,1,Space,M01,22.6,16557,48855
2309,900906,JOSEPH E BOONE BLVD @ SUNSET AVE NW,E,1,Y,CONC,51,Atlanta,Fulton,15.075935,4.93538,FS,Y,Y,Y,Y,Other Bench,33.76338,-84.40976,13121002500,Census Tract 25,33.7590745,-84.4126613,39.3,30283,2814,16237.6,  ,0,1,Space,I04,28.5,5948,38020
2310,904341,JOSEPH E BOONE BLVD @ MAYSON TURNER,E,1,Y,DIRT,51,Atlanta,Fulton,18.872312,12.150168,NS,Y,Y,Y,Y,Sign,33.763402,-84.425488,13121002400,Census Tract 24,33.7586698,-84.4248089,32.4,28056,2902,19166.3,  ,0,1,Private Property,L01,35.1,4486,31103
2311,901338,MARIETTA ST NW @ SIMPSON ST NW,S,1,Y,CONC,26,Atlanta,Fulton,22.032068,2.821713,NS,Y,Y,Y,Y,Sign,33.763411,-84.3972,13121002100,Census Tract 21,33.7655324,-84.3947712,17.6,68618,2409,41520.4,  ,0,0,Private Property,I03,22.1,5512,34652
2313,900805,JOSEPH E BOONE BLVD @ VINE ST NW,E,1,Y,CONC,51,Atlanta,Fulton,6.317528,2.832017,FS,Y,Y,Y,Y,MARTA Shelter,33.763412,-84.407518,13121002600,Census Tract 26,33.7587958,-84.4026296,27.6,33611,1672,17417.2,  ,1,1,Space,L01,35.1,4486,31103
2315,900708,JOSEPH E BOONE BLVD @ SCIPLE TER NW,E,1,Y,DIRT,51,Atlanta,Fulton,13.383474,8.413753,FS,Y,Y,Y,Y,Other Bench,33.763417,-84.414907,13121002500,Census Tract 25,33.7590745,-84.4126613,39.3,30283,2814,16237.6,  ,0,1,ROW,I03,22.1,5512,34652
2316,905158,JOSEPH E BOONE BLVD @ JOSEPH E LOWERY BLVD,E,1,Y,CONC,51,Atlanta,Fulton,56.59095,38.079173,NS,Y,Y,Y,Y,MARTA Shelter,33.763426,-84.417669,13121002400,Census Tract 24,33.7586698,-84.4248089,32.4,28056,2902,19166.3,  ,1,1,Few,M02,19.1,15395,61781
2322,905153,JOSEPH E BOONE BLVD @ CHAPPELL RD,E,0,Y,CONC,51,Atlanta,Fulton,49.737697,23.220594,NS,Y,Y,Y,Y,Sign,33.763479,-84.433143,13121008400,Census Tract 84,33.7618564,-84.4355748,39.8,24183,2649,19424.6,Lighting  ,0,1,ROW,M02,19.1,15395,61781
2324,904342,JOSEPH E BOONE BLVD @ ARCHER WAY NW,E,1,Y,DIRT,51,Atlanta,Fulton,16.652573,10.356647,FS,Y,Y,Y,Y,Sign,33.763481,-84.423479,13121002400,Census Tract 24,33.7586698,-84.4248089,32.4,28056,2902,19166.3,  ,0,0,Private Property,N01,10.1,4621,100063
2327,211507,JOSEPH E BOONE BLVD NW @ W LAKE DR NW,E,1,Y,DIRT,51;853,Atlanta,Fulton,31.549966,24.950854,NS,Y,Y,Y,Y,Sign,33.763493,-84.439636,13121008400,Census Tract 84,33.7618564,-84.4355748,39.8,24183,2649,19424.6,  ,0,1,ROW,L02,30,2447,29463
2384,900948,RALPH MCGILL BLVD NE@PARKWAY DR NE,W,1,Y,CONC,816;899,Atlanta,Fulton,111.603601,9.306465,NS,Y,Y,Y,Y,MARTA Shelter,33.76403,-84.373405,13121001700,Census Tract 17,33.7659024,-84.3671952,7.8,94750,4911,62120.3,  ,1,1,Few,I03,22.1,5512,34652
2401,903954,JOSEPH E BOONE BLVD @ ANDERSON AVE NW,NE,1,Y,DIRT,51,Atlanta,Fulton,34.30164,37.263317,FS,Y,Y,Y,Y,Sign,33.764662,-84.45113,13121008302,Census Tract 83.02,33.7573898,-84.452286,25.4,28318,1917,17086.6,  ,0,1,Space,I03,22.1,5512,34652
2429,901269,RALPH MCGILL BLVD@ASHLEY AVE,W,1,N,DIRT,816,Atlanta,Fulton,11.551723,0.409502,NS,Y,Y,N,Y,Sign,33.766005,-84.363475,13121001700,Census Tract 17,33.7659024,-84.3671952,7.8,94750,4911,62120.3, ADA_Access ,0,1,ROW,M01,22.6,16557,48855
2469,903430,BOULEVARD NE @ RANKIN ST NE,S,0,N,CONC,809,Atlanta,Fulton,2.81616,1.221463,NS,Y,Y,N,Y,Sign,33.76739,-84.37198,13121001700,Census Tract 17,33.7659024,-84.3671952,7.8,94750,4911,62120.3,Lighting ADA_Access ,0,1,ROW,M01,22.6,16557,48855
2472,900015,MORELAND AVE @ MANSFIELD AVE,N,1,Y,CONC,6;102,Atlanta,Fulton,21.442639,20.412488,NS,Y,Y,Y,Y,Sign,33.767701,-84.34896,13089020400,Census Tract 204,33.7660727,-84.3443392,4.7,106103,2701,67674.8,  ,0,1,ROW,M02,19.1,15395,61781
2498,901092,CAMERON M ALEXANDER BLVD @ SUNSET AVE NW,E,1,N,DIRT,50,Atlanta,Fulton,10.639198,2.639696,NS,Y,Y,N,Y,Sign,33.768164,-84.410002,13121011800,Census Tract 118,33.7709168,-84.4088781,25.7,30972,1867,21117.8, ADA_Access ,0,1,ROW,M01,22.6,16557,48855
2545,900800,HAMILTON E HOLMES DR NW @ BAKER RD NW,S,1,Y,DIRT,60;153;853,Atlanta,Fulton,26.020546,6.504221,NS,Y,Y,Y,Y,Sign,33.769176,-84.472037,13121008201,Census Tract 82.01,33.7699902,-84.4826837,28.5,38080,6367,22599.7,  ,0,1,ROW,L01,35.1,4486,31103
2557,211456,NORTHSIDE DR NW @ NORTH AVE NW,N,1,Y,DIRT,50;94,Atlanta,Fulton,6.416049,11.034111,NS,Y,Y,Y,Y,Sign,33.769698,-84.404665,13121011800,Census Tract 118,33.7709168,-84.4088781,25.7,30972,1867,21117.8,  ,0,1,ROW,M01,22.6,16557,48855
2587,905006,NORTH AVE @ HUNT ST,E,1,Y,CONC,102;899,Atlanta,Fulton,44.009745,112.765334,NS,Y,Y,Y,Y,MARTA Shelter,33.771074,-84.37483,13121001800,Census Tract 18,33.7663445,-84.3780718,28.9,49486,4281,47460.2,  ,1,1,Few,D03,4.9,4069,77988
2590,904482,N HIGHLAND AVE @ NORTH AVE,S,1,Y,CONC,102;816,Atlanta,Fulton,14.531945,11.993351,NS,Y,Y,Y,Y,Sign,33.77111,-84.35256,13121001500,Census Tract 15,33.776497,-84.3539007,15.6,66490,4617,66322,  ,0,0,Private Property,B07,12.7,3393,87773
2596,905047,NORTH AVE NE @ HUNT ST NE,W,1,Y,CONC,102;899,Atlanta,Fulton,153.450917,33.260827,NS,N,Y,Y,Y,MARTA Shelter,33.771219,-84.374655,13121001300,Census Tract 13,33.7761933,-84.3715699,5.5,76188,4421,54315.2,  ,1,1,Few,G03,21.9,4739,33344
2601,900943,NORTH AVE NE @ PARKWAY DR NE,W,1,Y,DIRT,102;899,Atlanta,Fulton,54.560922,14.815107,NS,Y,Y,Y,Y,Sign,33.771277,-84.372648,13121001300,Census Tract 13,33.7761933,-84.3715699,5.5,76188,4421,54315.2,  ,0,1,ROW,B09,10.2,3999,82333
2603,904513,BOULEVARD NE @ NORTH AVE NE,S,0,Y,CONC,102;809,Atlanta,Fulton,26.805734,11.945091,NS,Y,Y,Y,Y,Sign,33.771286,-84.371986,13121001300,Census Tract 13,33.7761933,-84.3715699,5.5,76188,4421,54315.2,Lighting  ,0,1,ROW,E07,11.5,20736,93312
2606,904966,NORTH AVE NW @ SPRING ST NW,W,1,Y,CONC,50;51,Atlanta,Fulton,25.719282,0.055556,NS,Y,Y,Y,Y,Sign,33.771331,-84.388609,13121001001,Census Tract 10.01,33.7828223,-84.3902405,8.1,103846,2904,49119.3,  ,0,0,Building,D03,4.9,4069,77988
2609,904657,DONALD L HOLLOWELL PKY @ CHAPPELL RD NW,W,0,Y,DIRT,50,Atlanta,Fulton,9.082887,10.934163,NS,Y,Y,Y,Y,Sign,33.771349,-84.433787,13121008500,Census Tract 85,33.7758562,-84.4443269,15.9,24890,2551,17865.9,Lighting  ,0,1,Space,O03,15.3,4400,67889
2660,904766,DONALD L HOLLOWELL PKWY @ LINDSAY ST,E,1,Y,CONC,50,Atlanta,Fulton,50.245836,29.795836,NS,Y,Y,Y,Y,MARTA Shelter,33.77301,-84.416565,13121011800,Census Tract 118,33.7709168,-84.4088781,25.7,30972,1867,21117.8,  ,1,1,Few,O03,15.3,4400,67889
2664,904648,DONALD L HOLLOWELL PKWY @ JOSEPH E LOWERY BLVD,W,1,Y,CONC,50,Atlanta,Fulton,6.391691,15.323228,NS,Y,Y,Y,Y,Sign,33.773081,-84.417304,13121011800,Census Tract 118,33.7709168,-84.4088781,25.7,30972,1867,21117.8,  ,0,1,Sign Missing,T03,25.7,3505,38534
2665,904636,BOULEVARD NE @ PONCE DE LEON AVE NE,N,1,Y,DIRT,102;809,Atlanta,Fulton,6.436879,46.924643,NS,Y,Y,Y,Y,Sign,33.773109,-84.371068,13121001300,Census Tract 13,33.7761933,-84.3715699,5.5,76188,4421,54315.2,  ,0,0,Private Property,M02,19.1,15395,61781
2670,904333,MARIETTA ST NW@MEANS ST NW,SE,1,Y,CONC,26,Atlanta,Fulton,27.656462,5.268047,NS,Y,Y,Y,Y,Sign,33.773163,-84.403484,13121001002,Census Tract 10.02,33.7763249,-84.3995394,18.4,31042,7305,5419.2,  ,0,1,ROW,M02,19.1,15395,61781
2676,903665,HAMILTON E HOLMES DR NW @ WASHINGTON ST,N,1,Y,CONC,60;153;853,Atlanta,Fulton,9.055829,62.174222,NS,Y,Y,Y,Y,Sign,33.773282,-84.473467,13121008601,Census Tract 86.01,33.7814512,-84.4661915,41.6,22696,4953,12271.6,  ,0,1,ROW,J01,39.9,2501,23628
2678,904308,PONCE DE LEON AVE NE @ 675,E,1,Y,CONC,2;102,Atlanta,Fulton,78.043622,111.761134,AT,Y,Y,Y,Y,MARTA Shelter,33.773308,-84.365808,13121001300,Census Tract 13,33.7761933,-84.3715699,5.5,76188,4421,54315.2,  ,1,1,Few,G01,20.1,2617,37086
2684,904512,PONCE DE LEON AVE NE @ 680,W,1,Y,CONC,2;102,Atlanta,Fulton,112.381317,58.08168,AT,Y,Y,Y,Y,MARTA Shelter,33.77344,-84.365329,13121001300,Census Tract 13,33.7761933,-84.3715699,5.5,76188,4421,54315.2,  ,1,1,Few,J03,31.1,3256,26191
2699,904415,PONCE DE LEON AVE NE @ PONCE DE LEON CT,W,1,Y,CONC,2;102,Atlanta,Fulton,28.715932,13.306807,NS,Y,Y,Y,Y,Sign,33.773666,-84.368042,13121001300,Census Tract 13,33.7761933,-84.3715699,5.5,76188,4421,54315.2,  ,0,1,Sign Missing,M02,19.1,15395,61781
2700,904527,PONCE DE LEON AVE NE @ PONCE DE LEON PL,W,1,Y,DIRT,2;102,Atlanta,Fulton,63.904551,20.679373,NS,Y,Y,Y,Y,Sign,33.773699,-84.36362,13121001400,Census Tract 14,33.7770784,-84.3622634,2.3,84167,2345,78163.9,  ,0,1,Few,M02,19.1,15395,61781
2704,904414,PONCE DE LEON AVE NE @ MONROE DR NE,W,0,Y,CONC,2,Atlanta,Fulton,37.640932,16.719523,NS,Y,Y,Y,Y,MARTA Shelter,33.773743,-84.370636,13121001300,Census Tract 13,33.7761933,-84.3715699,5.5,76188,4421,54315.2,Lighting  ,1,1,Few,E02,15.1,8706,43785
2706,904302,PONCE DE LEON AVE NE @ KENNESAW AVE NE,E,0,Y,CONC,2;102,Atlanta,Fulton,17.123957,31.313688,FS,Y,Y,Y,Y,Sign,33.773781,-84.369666,13121001300,Census Tract 13,33.7761933,-84.3715699,5.5,76188,4421,54315.2,Lighting  ,0,0,Building,K01,30.5,4376,29559
2711,211524,PONCE DE LEON AVE @ N HIGHLAND AVE,W,1,Y,CONC,2;102,Atlanta,Fulton,82.077279,21.565021,FS,Y,Y,Y,Y,Sign,33.773916,-84.353067,13121001500,Census Tract 15,33.776497,-84.3539007,15.6,66490,4617,66322,  ,0,1,Space,K02,36.9,2984,26663
2713,904531,PONCE DE LEON AVE NE @ FREDERICA ST NE,W,1,Y,CONC,2;102,Atlanta,Fulton,56.884166,7.260903,NS,Y,Y,Y,Y,MARTA Shelter,33.773941,-84.355507,13121001500,Census Tract 15,33.776497,-84.3539007,15.6,66490,4617,66322,  ,1,1,Few,E07,11.5,20736,93312
2716,904428,PONCE DE LEON AVE NE @ BARNETT ST NE,W,1,Y,DIRT,2;102,Atlanta,Fulton,5.098287,3.654547,NS,Y,Y,Y,Y,Sign,33.773975,-84.358505,13121001500,Census Tract 15,33.776497,-84.3539007,15.6,66490,4617,66322,  ,0,0,Building,E07,11.5,20736,93312
2777,903950,DONALD L HOLLOWELL PKY @ HAMILTON E HOLMES DR,W,0,Y,CONC,50;853,Atlanta,Fulton,28.236347,57.169874,FS,Y,Y,Y,Y,Sign,33.776651,-84.474323,13121008602,Census Tract 86.02,33.7919704,-84.4904445,18.6,37708,1562,19014.1,Lighting  ,0,1,ROW,F03,6.9,9276,93094
2799,905142,MARIETTA ST NW@HAMPTON ST NW,S,1,Y,DIRT,26,Atlanta,Fulton,26.302459,2.752794,NS,Y,Y,Y,Y,Sign,33.777245,-84.408516,13121001002,Census Tract 10.02,33.7763249,-84.3995394,18.4,31042,7305,5419.2,  ,0,1,Space,F03,6.9,9276,93094
2880,904800,MIDTOWN STATION,S,1,Y,CONC,12;14;36,Atlanta,Fulton,1455.126148,1333.243114,AT,Y,Y,Y,Y,Station,33.78111,-84.386697,13121001202,Census Tract 12.02,33.776784,-84.3851557,9.8,93143,5206,76817.5,  ,0,1,Space,N02,6,7207,98023
2942,904480,N HIGHLAND AVE @ VIRGINIA AVE,S,1,Y,CONC,36;816,Atlanta,Fulton,25.720432,13.495724,NS,Y,Y,Y,Y,Sign,33.782677,-84.354515,13121000200,Census Tract 2,33.7916329,-84.3641988,0,158011,6175,107229,  ,0,1,Space,E07,11.5,20736,93312
3065,902516,PEACHTREE ST NE @ 15TH ST NE,N,1,Y,CONC,110,Atlanta,Fulton,10.862969,3.095255,FS,Y,Y,Y,Y,Sign,33.78955,-84.384343,13121000400,Census Tract 4,33.7883241,-84.3785105,8.5,97257,2047,106815.8,  ,0,1,Space,M02,19.1,15395,61781
3078,902019,PERRY BLVD@1600,SE,1,Y,CONC,26,Atlanta,Fulton,84.396017,26.784185,AT,Y,Y,Y,Y,MARTA Shelter,33.790317,-84.440622,13121008700,Census Tract 87,33.7938339,-84.4598776,22,33732,5781,23628.8,  ,1,1,Few,F03,6.9,9276,93094
3151,211916,NORTHSIDE DR NW @ TRABERT AVE NW,S,1,N,DIRT,37,Atlanta,Fulton,13.393059,2.135116,NS,N,Y,N,N,Sign,33.794839,-84.407889,13121008902,Census Tract 89.02,33.7984651,-84.4194299,4.5,72432,8007,55037.8, ADA_Access Sidewalk,0,1,Space,F03,6.9,9276,93094
3236,902578,BELLEMEADE AVE NW@TALLULAH ST NW,E,1,Y,DIRT,37,Atlanta,Fulton,23.845582,3.392102,NS,Y,Y,Y,Y,Sign,33.800296,-84.411267,13121008902,Census Tract 89.02,33.7984651,-84.4194299,4.5,72432,8007,55037.8,  ,0,1,ROW,M02,19.1,15395,61781
3239,901671,BELLEMEADE AVE NW@BUCHANAN ST NW,E,1,Y,DIRT,37,Atlanta,Fulton,24.850902,10.852577,NS,Y,Y,Y,Y,Sign,33.80037,-84.41332,13121008902,Census Tract 89.02,33.7984651,-84.4194299,4.5,72432,8007,55037.8,  ,0,0,Private Property,L02,30,2447,29463
3485,900043,LINDBERGH WAY NE @ W LINDMONT CT,E,1,N,DIRT,6,Atlanta,Fulton,9.468599,0.125,FS,Y,Y,Y,Y,Sign,33.820486,-84.364804,13121009402,Census Tract 94.02,33.8221523,-84.3642584,7.3,75088,5537,54033.6, ADA_Access ,0,1,Sign Missing,J02,25.4,4094,24736
3489,900591,LINDBERGH DR NE @ ADINA DR NE,W,1,Y,CONC,6,Atlanta,Fulton,2.939864,11.611631,NS,Y,Y,Y,Y,Sign,33.820666,-84.363153,13121009402,Census Tract 94.02,33.8221523,-84.3642584,7.3,75088,5537,54033.6,  ,0,0,Building,L02,30,2447,29463
3520,900568,BUFORD HWY NE @ LENOX POINTE,SW,1,Y,CONC,30;39,Atlanta,Fulton,85.979341,7.176151,NS,Y,Y,Y,Y,MARTA Shelter,33.825135,-84.354494,13121009403,Census Tract 94.03,33.8315945,-84.3599075,24,63269,5268,41006.9,  ,1,1,Few,E07,11.5,20736,93312
3521,900604,BUFORD HWY NE @ LENOX RD,NE,1,Y,CONC,30;39,Atlanta,Fulton,33.139607,92.855765,NS,Y,Y,Y,Y,MARTA Shelter,33.825215,-84.3537,13121009402,Census Tract 94.02,33.8221523,-84.3642584,7.3,75088,5537,54033.6,  ,1,1,Sign Missing,E07,11.5,20736,93312
3526,900601,SIDNEY MARCUS BLVD NE @ PIEDMONT RD NE,E,1,Y,CONC,30;39,Atlanta,Fulton,187.05941,1.336825,FS,Y,Y,Y,Y,MARTA Shelter,33.82574,-84.366322,13121009402,Census Tract 94.02,33.8221523,-84.3642584,7.3,75088,5537,54033.6,  ,1,1,Few,M02,19.1,15395,61781
3564,900638,PEACHTREE RD NW@SHERIDAN,S,0,Y,CONC,110,Atlanta,Fulton,22.873635,6.808765,NS,Y,Y,Y,Y,Sign,33.833595,-84.383653,13121009502,Census Tract 95.02,33.8419877,-84.3860683,13.4,86053,3867,91872,Lighting  ,0,1,ROW,M02,19.1,15395,61781
3570,900654,PEACHTREE RD NW@PEACHTREE AVE NE,N,1,Y,CONC,110,Atlanta,Fulton,49.793611,66.540515,NS,Y,Y,Y,Y,Sign,33.83479,-84.382422,13121009502,Census Tract 95.02,33.8419877,-84.3860683,13.4,86053,3867,91872,  ,0,1,ROW,E02,15.1,8706,43785
3575,902513,PEACHTREE RD @ PHARR RD NE,N,1,Y,CONC,110,Atlanta,Fulton,45.749364,52.905029,NS,Y,Y,Y,Y,MARTA Shelter,33.836966,-84.381379,13121009603,Census Tract 96.03,33.8343705,-84.3757572,10.9,83243,4830,80405.7,  ,1,1,Sign Missing,K01,30.5,4376,29559
3577,900664,PEACHTREE RD NW@PHARR RD NW,S,1,Y,CONC,110,Atlanta,Fulton,53.691118,41.945316,NS,Y,Y,Y,Y,MARTA Shelter,33.83717,-84.381653,13121009502,Census Tract 95.02,33.8419877,-84.3860683,13.4,86053,3867,91872,  ,1,1,Few,K02,36.9,2984,26663
3594,901693,PEACHTREE RD NW@MATHIESON DR NE,NE,1,Y,CONC,110,Atlanta,Fulton,8.036439,3.733465,NS,Y,Y,Y,Y,Sign,33.840317,-84.377192,13121009603,Census Tract 96.03,33.8343705,-84.3757572,10.9,83243,4830,80405.7,  ,0,1,Space,B02,4.7,3565,102562
3623,905410,PIEDMONT RD NE @ TOWER PLACE DR NE,S,1,Y,CONC,5,Atlanta,Fulton,46.644281,45.104382,NS,Y,Y,Y,Y,MARTA Shelter,33.84651,-84.372831,13121009601,Census Tract 96.01,33.8463916,-84.3777069,1.3,107386,2631,76059.9,  ,1,1,Few,J03,31.1,3256,26191
3638,905765,PEACHTREE RD NE @ LENOX RD,SW,1,Y,CONC,110,Atlanta,Fulton,21.828943,13.347831,FS,Y,Y,Y,Y,MARTA Shelter,33.850395,-84.362343,13121010002,Census Tract 100.02,33.8680492,-84.3577716,5.5,146182,8716,117703.9,  ,1,1,Few,B04,4.5,9691,127673
3675,905577,ROSWELL RD NE @ MIDVALE DR NE,N,1,Y,DIRT,5,Atlanta,Fulton,8.184929,22.695035,NS,Y,Y,Y,Y,Sign,33.872971,-84.38097,13121010001,Census Tract 100.01,33.8638108,-84.373678,3.4,108197,4923,99971.3,,0,1,Space,B04,4.5,9691,127673
